OBJECT_NAME,OBJECT_ID,EPOCH,MEAN_MOTION,ECCENTRICITY,INCLINATION,RA_OF_ASC_NODE,ARG_OF_PERICENTER,MEAN_ANOMALY,EPHEMERIS_TYPE,CLASSIFICATION_TYPE,NORAD_CAT_ID,ELEMENT_SET_NO,REV_AT_EPOCH,BSTAR,MEAN_MOTION_DOT,MEAN_MOTION_DDOT
2024-016D,2024-016D,2024-02-07T13:43:47.234208,15.11520438,0.0013956,97.5197,114.6603,232.3909,127.6055,0,U,58823,999,232,0.00057421,9.692e-05,0
2024-016E,2024-016E,2024-02-07T13:20:17.060064,15.53308929,0.0184263,97.6678,115.9413,329.062,29.9876,0,U,58824,999,237,0.00067244,0.00089568,4.2924e-06
2024-016F,2024-016F,2024-02-04T05:04:07.405248,15.11342253,0.0013514,97.5234,111.3533,241.6732,194.7075,0,U,58825,999,174,0.00067662,0.00011376,0
STARLINK-31233,2024-017A,2024-02-06T10:00:00.999936,15.67568809,0.0001248,53.1606,154.2213,51.9324,146.8545,0,U,58826,999,323,-0.017534,-0.01712215,0
STARLINK-31271,2024-017B,2024-02-06T06:00:00.999648,15.66908168,8.27e-05,53.1609,154.927,84.5566,310.1875,0,U,58827,999,322,-0.017725,-0.01687602,0
STARLINK-31222,2024-017C,2024-02-07T14:00:01.000224,15.63199571,0.0001095,53.1594,148.5034,87.4664,211.4027,0,U,58828,999,343,-0.020991,-0.01749349,0
STARLINK-31258,2024-017D,2024-02-07T14:00:01.000224,15.63198081,0.0001072,53.1593,148.5016,72.2638,227.4741,0,U,58829,999,343,-0.020997,-0.01749692,0
STARLINK-31253,2024-017E,2024-02-05T14:00:01.000224,15.70690518,0.0001222,53.1592,158.3211,72.5025,99.7395,0,U,58830,999,310,-0.01563,-0.01735502,0
STARLINK-31232,2024-017F,2024-02-07T14:00:01.000224,15.63195276,0.0001071,53.1594,148.4977,79.5409,221.9352,0,U,58831,999,343,-0.021001,-0.01749815,0
STARLINK-31263,2024-017G,2024-02-05T14:00:01.000224,15.70685767,0.0001488,53.1591,158.3177,61.18,112.8218,0,U,58832,999,320,-0.015605,-0.0173295,0
STARLINK-31175,2024-017H,2024-02-06T08:00:01.000224,15.6937615,0.0001334,53.1619,154.3553,85.5209,138.9009,0,U,58833,999,322,-0.016131,-0.01699693,0
STARLINK-31171,2024-017J,2024-02-06T18:00:00.999648,15.65617012,6.63e-05,53.1609,152.4302,49.413,309.1364,0,U,58834,999,330,-0.018246,-0.01652803,0
STARLINK-31246,2024-017K,2024-02-07T14:00:01.000224,15.63190213,9.28e-05,53.1593,148.4908,72.2023,232.7506,0,U,58835,999,343,-0.021012,-0.01750242,0
STARLINK-31251,2024-017L,2024-02-06T02:00:01.000224,15.68790388,0.0001191,53.1611,155.8427,49.9303,75.6071,0,U,58836,999,329,-0.01661,-0.01706821,0
STARLINK-31172,2024-017M,2024-02-07T14:00:01.000224,15.70204844,0.0001325,53.1638,148.1271,66.9545,59.4854,0,U,58837,999,342,-0.015858,-0.01726392,0
STARLINK-31249,2024-017N,2024-02-06T06:00:00.999648,15.68157842,7.27e-05,53.1605,155.019,78.3226,269.7177,0,U,58838,999,322,-0.016785,-0.01683002,0
STARLINK-31250,2024-017P,2024-02-07T14:00:01.000224,15.6318376,0.0001179,53.1593,148.4829,68.127,240.3006,0,U,58839,999,338,-0.020998,-0.01748939,0
STARLINK-31248,2024-017Q,2024-02-05T18:00:00.999648,15.70013822,0.0001067,53.1602,157.4782,50.8637,353.8086,0,U,58840,999,323,-0.015414,-0.01671705,0
STARLINK-31236,2024-017R,2024-02-05T18:00:00.999648,15.70012414,0.0001403,53.1603,157.4806,23.7997,19.9947,0,U,58841,999,314,-0.015364,-0.01667047,0
STARLINK-31228,2024-017S,2024-02-05T16:00:00.999936,15.70345204,9.52e-05,53.1591,157.888,59.2853,234.9325,0,U,58842,999,313,-0.015585,-0.01708862,0
STARLINK-31280,2024-017T,2024-02-06T02:00:01.000224,15.68791722,0.0001011,53.1594,155.8308,65.8477,64.9449,0,U,58843,999,320,-0.016743,-0.01718791,0
STARLINK-31269,2024-017U,2024-02-07T14:00:01.000224,15.63174878,0.0001094,53.1593,148.4705,69.0315,245.4785,0,U,58844,999,343,-0.021027,-0.01750501,0
STARLINK-31264,2024-017V,2024-02-07T14:00:01.000224,15.63176131,0.0001159,53.1593,148.4734,58.2666,255.3742,0,U,58845,999,343,-0.021027,-0.01750616,0
STARLINK-31273,2024-017W,2024-02-06T18:00:00.999648,15.6626723,0.0001177,53.1589,152.5534,42.8442,253.069,0,U,58846,999,328,-0.017941,-0.01667066,0
STARLINK-31262,2024-017X,2024-02-07T14:00:01.000224,15.63174157,9.3e-05,53.1594,148.4685,78.0222,237.3578,0,U,58847,999,343,-0.021036,-0.01751035,0
AAC-HIS-SAT3,2023-174DH,2024-02-07T13:18:13.311072,15.06136559,0.0014405,97.4508,114.0764,99.579,260.7066,0,U,58848,999,1386,0.00054328,7.909e-05,0
2024-018A,2024-018A,2024-02-07T14:01:58.561248,14.32760084,0.0457685,58.6914,351.1463,174.4408,186.1956,0,U,58849,999,152,0.00025152,2.028e-05,0
2024-018B,2024-018B,2024-02-07T13:54:41.931072,14.33453946,0.0454578,58.6999,351.1308,174.9115,185.6771,0,U,58850,999,151,0.0003729,3.143e-05,0
2024-018C,2024-018C,2024-02-07T13:48:37.818144,14.3400865,0.0451906,58.6883,351.1065,174.358,186.2792,0,U,58851,999,152,0.00018721,1.454e-05,0
2024-018D,2024-018D,2024-02-07T12:09:30.728160,14.33934303,0.0452569,58.6781,351.3435,173.8427,186.8432,0,U,58852,999,151,0.00068424,6.004e-05,0
