2024-016D               
1 58823U 24016D   24038.57207447  .00009692  00000+0  57421-3 0  9999
2 58823  97.5197 114.6603 0013956 232.3909 127.6055 15.11520438  2322
2024-016E               
1 58824U 24016E   24038.55575301  .00089568  42924-5  67244-3 0  9996
2 58824  97.6678 115.9413 0184263 329.0620  29.9876 15.53308929  2370
2024-016F               
1 58825U 24016F   24035.21119682  .00011376  00000+0  67662-3 0  9992
2 58825  97.5234 111.3533 0013514 241.6732 194.7075 15.11342253  1748
STARLINK-31233          
1 58826U 24017A   24037.41667824 -.01712215  00000+0 -17534-1 0  9998
2 58826  53.1606 154.2213 0001248  51.9324 146.8545 15.67568809  3235
STARLINK-31271          
1 58827U 24017B   24037.25001157 -.01687602  00000+0 -17725-1 0  9995
2 58827  53.1609 154.9270 0000827  84.5566 310.1875 15.66908168  3227
STARLINK-31222          
1 58828U 24017C   24038.58334491 -.01749349  00000+0 -20991-1 0  9999
2 58828  53.1594 148.5034 0001095  87.4664 211.4027 15.63199571  3439
STARLINK-31258          
1 58829U 24017D   24038.58334491 -.01749692  00000+0 -20997-1 0  9997
2 58829  53.1593 148.5016 0001072  72.2638 227.4741 15.63198081  3432
STARLINK-31253          
1 58830U 24017E   24036.58334491 -.01735502  00000+0 -15630-1 0  9990
2 58830  53.1592 158.3211 0001222  72.5025  99.7395 15.70690518  3108
STARLINK-31232          
1 58831U 24017F   24038.58334491 -.01749815  00000+0 -21001-1 0  9994
2 58831  53.1594 148.4977 0001071  79.5409 221.9352 15.63195276  3436
STARLINK-31263          
1 58832U 24017G   24036.58334491 -.01732950  00000+0 -15605-1 0  9998
2 58832  53.1591 158.3177 0001488  61.1800 112.8218 15.70685767  3201
STARLINK-31175          
1 58833U 24017H   24037.33334491 -.01699693  00000+0 -16131-1 0  9994
2 58833  53.1619 154.3553 0001334  85.5209 138.9009 15.69376150  3220
STARLINK-31171          
1 58834U 24017J   24037.75001157 -.01652803  00000+0 -18246-1 0  9992
2 58834  53.1609 152.4302 0000663  49.4130 309.1364 15.65617012  3303
STARLINK-31246          
1 58835U 24017K   24038.58334491 -.01750242  00000+0 -21012-1 0  9996
2 58835  53.1593 148.4908 0000928  72.2023 232.7506 15.63190213  3432
STARLINK-31251          
1 58836U 24017L   24037.08334491 -.01706821  00000+0 -16610-1 0  9993
2 58836  53.1611 155.8427 0001191  49.9303  75.6071 15.68790388  3296
STARLINK-31172          
1 58837U 24017M   24038.58334491 -.01726392  00000+0 -15858-1 0  9998
2 58837  53.1638 148.1271 0001325  66.9545  59.4854 15.70204844  3428
STARLINK-31249          
1 58838U 24017N   24037.25001157 -.01683002  00000+0 -16785-1 0  9992
2 58838  53.1605 155.0190 0000727  78.3226 269.7177 15.68157842  3222
STARLINK-31250          
1 58839U 24017P   24038.58334491 -.01748939  00000+0 -20998-1 0  9992
2 58839  53.1593 148.4829 0001179  68.1270 240.3006 15.63183760  3388
STARLINK-31248          
1 58840U 24017Q   24036.75001157 -.01671705  00000+0 -15414-1 0  9994
2 58840  53.1602 157.4782 0001067  50.8637 353.8086 15.70013822  3231
STARLINK-31236          
1 58841U 24017R   24036.75001157 -.01667047  00000+0 -15364-1 0  9993
2 58841  53.1603 157.4806 0001403  23.7997  19.9947 15.70012414  3144
STARLINK-31228          
1 58842U 24017S   24036.66667824 -.01708862  00000+0 -15585-1 0  9999
2 58842  53.1591 157.8880 0000952  59.2853 234.9325 15.70345204  3134
STARLINK-31280          
1 58843U 24017T   24037.08334491 -.01718791  00000+0 -16743-1 0  9997
2 58843  53.1594 155.8308 0001011  65.8477  64.9449 15.68791722  3206
STARLINK-31269          
1 58844U 24017U   24038.58334491 -.01750501  00000+0 -21027-1 0  9990
2 58844  53.1593 148.4705 0001094  69.0315 245.4785 15.63174878  3439
STARLINK-31264          
1 58845U 24017V   24038.58334491 -.01750616  00000+0 -21027-1 0  9998
2 58845  53.1593 148.4734 0001159  58.2666 255.3742 15.63176131  3430
STARLINK-31273          
1 58846U 24017W   24037.75001157 -.01667066  00000+0 -17941-1 0  9993
2 58846  53.1589 152.5534 0001177  42.8442 253.0690 15.66267230  3285
STARLINK-31262          
1 58847U 24017X   24038.58334491 -.01751035  00000+0 -21036-1 0  9996
2 58847  53.1594 148.4685 0000930  78.0222 237.3578 15.63174157  3435
AAC-AIS-SAT3            
1 58848U 23174DH  24038.55432073  .00007909  00000+0  54328-3 0  9995
2 58848  97.4508 114.0764 0014405  99.5790 260.7066 15.06136559 13860
2024-018A               
1 58849U 24018A   24038.58470557  .00002028  00000+0  25152-3 0  9996
2 58849  58.6914 351.1463 0457685 174.4408 186.1956 14.32760084  1524
2024-018B               
1 58850U 24018B   24038.57965198  .00003143  00000+0  37290-3 0  9992
2 58850  58.6999 351.1308 0454578 174.9115 185.6771 14.33453946  1510
2024-018C               
1 58851U 24018C   24038.57543771  .00001454  00000+0  18721-3 0  9993
2 58851  58.6883 351.1065 0451906 174.3580 186.2792 14.34008650  1525
2024-018D               
1 58852U 24018D   24038.50660565  .00006004  00000+0  68424-3 0  9999
2 58852  58.6781 351.3435 0452569 173.8427 186.8432 14.33934303  1514
